[{"OBJECT_NAME":"STARLINK-36555","OBJECT_ID":"2026-012E","EPOCH":"2026-03-08T17:41:25.157472","MEAN_MOTION":15.27597001,"ECCENTRICITY":6.75e-5,"INCLINATION":42.9956,"RA_OF_ASC_NODE":320.0039,"ARG_OF_PERICENTER":70.5265,"MEAN_ANOMALY":289.566,"EPHEMERIS_TYPE":0,"CLASSIFICATION_TYPE":"U","NORAD_CAT_ID":67497,"ELEMENT_SET_NO":999,"REV_AT_EPOCH":761,"BSTAR":0.0013564559,"MEAN_MOTION_DOT":0.00037273,"MEAN_MOTION_DDOT":0},{"OBJECT_NAME":"FENGYUN 1C DEB","OBJECT_ID":"1999-025AQG","EPOCH":"2026-03-09T10:43:06.043872","MEAN_MOTION":15.25746961,"ECCENTRICITY":0.00178142,"INCLINATION":98.9311,"RA_OF_ASC_NODE":250.2123,"ARG_OF_PERICENTER":328.3876,"MEAN_ANOMALY":31.6286,"EPHEMERIS_TYPE":0,"CLASSIFICATION_TYPE":"U","NORAD_CAT_ID":30674,"ELEMENT_SET_NO":999,"REV_AT_EPOCH":98658,"BSTAR":0.015201752,"MEAN_MOTION_DOT":0.00411052,"MEAN_MOTION_DDOT":0}]
